RTU MIREA 1 (RS51S)     
1 61785U 24199BC  26100.24150771  .00046750  00000+0  70341-3 0  9997
2 61785  97.3056 335.3273 0010567 159.1689 200.9998 15.54639423123895
TEVEL2-4                
1 63213U 25052D   26100.51127351  .00018356  00000+0  58953-3 0  9998
2 63213  97.3974 356.8861 0003014  36.9020 323.2428 15.32340269 59745
TEVEL2-5                
1 63214U 25052E   26100.45961758  .00019276  00000+0  62158-3 0  9993
2 63214  97.3973 356.8001 0002945  35.2806 324.8630 15.32199897 59737
TEVEL2-6                
1 63215U 25052F   26100.20904148  .00018530  00000+0  59859-3 0  9993
2 63215  97.3972 356.5353 0003073  35.4366 324.7079 15.32150718 59690
TEVEL2-1                
1 63217U 25052H   26099.95497373  .00016093  00000+0  52798-3 0  9998
2 63217  97.3948 355.9818 0003653  44.1323 316.0210 15.31681472 59649
TEVEL2-3                
1 63218U 25052J   26099.95176269  .00016315  00000+0  53452-3 0  9992
2 63218  97.3948 355.9931 0003707  44.6846 315.4693 15.31723539 59640
TEVEL2-2                
1 63219U 25052K   26099.95556571  .00016386  00000+0  53745-3 0  9994
2 63219  97.3945 355.9835 0003635  44.2792 315.8739 15.31686192 59645
TEVEL2-9                
1 63237U 25052AD  26100.17608436  .00017314  00000+0  59964-3 0  9990
2 63237  97.4012 355.7160 0007335  39.3147 320.8624 15.29891654 59625
TEVEL2-7                
1 63238U 25052AE  26100.20511580  .00016848  00000+0  58799-3 0  9994
2 63238  97.4013 355.6869 0007475  39.4368 320.7415 15.29646618 59628
TEVEL2-8                
1 63239U 25052AF  26099.95090235  .00014667  00000+0  51286-3 0  9994
2 63239  97.4014 355.4132 0007506  40.8568 319.3233 15.29615278 59589
HADES-ICM               
1 63492U 25052BN  26100.20927466  .00277089  00000+0  22934-2 0  9997
2 63492  97.3873   2.0547 0005104  77.1733 283.0099 15.69404115 60068
INNOSAT 16 (RS92S7)     
1 64878U 25155C   26100.48650218  .00006518  00000+0  26593-3 0  9991
2 64878  97.4511  67.8943 0012467  68.9361 291.3208 15.24700984 70352
GEOSCAN 6 (RS92S6)      
1 64879U 25155D   26100.53350022  .00011490  00000+0  41178-3 0  9999
2 64879  97.4507  68.9158 0009832  65.1915 295.0346 15.28850407 70426
GEOSCAN 1 (RS92S1)      
1 64880U 25155E   26100.49440488  .00011604  00000+0  40974-3 0  9992
2 64880  97.4505  68.9715 0009837  65.7803 294.4464 15.29336085 70428
239ALFEROV (RS61S)      
1 64881U 25155F   26100.48589851  .00014912  00000+0  49765-3 0  9992
2 64881  97.4508  69.3185 0009484  66.0605 294.1628 15.31113078 70449
GEOSCAN 2 (RS92S2)      
1 64890U 25155Q   26100.50053025  .00011487  00000+0  40209-3 0  9992
2 64890  97.4504  69.1022 0008867  55.8029 304.4050 15.29632696 70435
GEOSCAN 5 (RS92S5)      
1 64891U 25155R   26100.48915958  .00014455  00000+0  47768-3 0  9997
2 64891  97.4501  69.4328 0008472  72.2365 287.9800 15.31445989 70453
GEOSCAN 4 (RS92S4)      
1 64892U 25155S   26100.47927056  .00015116  00000+0  49756-3 0  9993
2 64892  97.4504  69.4542 0008534  72.5799 287.6375 15.31562799 70451
GEOSCAN 3 (RS92S3)      
1 64893U 25155T   26100.49265198  .00018046  00000+0  56503-3 0  9991
2 64893  97.4494  69.7244 0008367  74.7304 285.4863 15.33129025 70475
INNOSAT 3 (RS92S0)      
1 64894U 25155U   26100.54054425  .00033791  00000+0  86454-3 0  9999
2 64894  97.4457  70.6800 0008121  77.9238 282.2917 15.39318866 70545
KNACKSAT-2              
1 67683U 98067XZ  26100.51204741  .00037364  00000+0  55757-3 0  9997
2 67683  51.6308 273.4089 0011082 304.9574  55.0375 15.54621922  9733
